start=new Date('2023-03-30T00:00:00.000Z').valueOf();
sats=[{"CLASSIFICATION_TYPE":"U","TIME_SYSTEM":"UTC","EPOCH":"2023-03-29T22:00:00.999936","MEAN_MOTION_DOT":"0.01436560","TLE_LINE2":"2 44947  53.0535 115.5753 0001167  82.1380 106.5330 15.22576717  1300","GP_ID":"229134663","BSTAR":"0.05595400000000","NORAD_CAT_ID":"44947","EPHEMERIS_TYPE":"0","MEAN_MOTION":"15.22576717","PERIAPSIS":"497.271","INCLINATION":"53.0535","SITE":"AFETR","TLE_LINE1":"1 44947U 20001AK  23088.91667824  .01436560  00000-0  55954-1 0  9999","PERIOD":"94.577","OBJECT_NAME":"STARLINK-1116","REV_AT_EPOCH":"130","REF_FRAME":"TEME","ARG_OF_PERICENTER":"82.1380","SEMIMAJOR_AXIS":"6876.209","APOAPSIS":"498.876","LAUNCH_DATE":"2020-01-07","ELEMENT_SET_NO":"999","OBJECT_TYPE":"PAYLOAD","MEAN_MOTION_DDOT":"0.0000000000000","ECCENTRICITY":"0.00011670","MEAN_ELEMENT_THEORY":"SGP4","RA_OF_ASC_NODE":"115.5753","OBJECT_ID":"2020-001AK","RCS_SIZE":"LARGE","FILE":"3874790","MEAN_ANOMALY":"106.5330","CENTER_NAME":"EARTH","DECAY_DATE":null,"COUNTRY_CODE":"US"},{"EPHEMERIS_TYPE":"0","MEAN_MOTION":"15.06401914","PERIAPSIS":"545.920","INCLINATION":"53.0522","SITE":"AFETR","TLE_LINE1":"1 44949U 20001AM  23088.81062311  .00002808  00000-0  20730-3 0  9999","PERIOD":"95.592","CLASSIFICATION_TYPE":"U","TIME_SYSTEM":"UTC","EPOCH":"2023-03-29T19:27:17.836704","BSTAR":"0.00020730000000","TLE_LINE2":"2 44949  53.0522 116.4275 0001860  78.7328 281.3870 15.06401914177965","GP_ID":"229135413","MEAN_MOTION_DOT":"0.00002808","NORAD_CAT_ID":"44949","ECCENTRICITY":"0.00018600","RA_OF_ASC_NODE":"116.4275","OBJECT_ID":"2020-001AM","MEAN_ELEMENT_THEORY":"SGP4","RCS_SIZE":"LARGE","FILE":"3874790","MEAN_ANOMALY":"281.3870","CENTER_NAME":"EARTH","DECAY_DATE":null,"COUNTRY_CODE":"US","REV_AT_EPOCH":"17796","OBJECT_NAME":"STARLINK-1122","ARG_OF_PERICENTER":"78.7328","REF_FRAME":"TEME","SEMIMAJOR_AXIS":"6925.343","APOAPSIS":"548.496","LAUNCH_DATE":"2020-01-07","ELEMENT_SET_NO":"999","OBJECT_TYPE":"PAYLOAD","MEAN_MOTION_DDOT":"0.0000000000000"},{"EPOCH":"2023-03-29T07:10:35.184576","TIME_SYSTEM":"UTC","NORAD_CAT_ID":"44950","MEAN_MOTION_DOT":"0.00140988","TLE_LINE2":"2 44950  53.0551  96.3405 0008771  46.2352 313.9373 15.34564121178204","GP_ID":"229101387","BSTAR":"0.00408070000000","CLASSIFICATION_TYPE":"U","TLE_LINE1":"1 44950U 20001AN  23088.29901834  .00140988  00000-0  40807-2 0  9993","PERIOD":"93.838","INCLINATION":"53.0551","PERIAPSIS":"456.218","MEAN_MOTION":"15.34564121","EPHEMERIS_TYPE":"0","SITE":"AFETR","OBJECT_TYPE":"PAYLOAD","ELEMENT_SET_NO":"999","LAUNCH_DATE":"2020-01-07","APOAPSIS":"468.217","MEAN_MOTION_DDOT":"0.0000000000000","OBJECT_NAME":"STARLINK-1125","REV_AT_EPOCH":"17820","SEMIMAJOR_AXIS":"6840.352","REF_FRAME":"TEME","ARG_OF_PERICENTER":"46.2352","CENTER_NAME":"EARTH","MEAN_ANOMALY":"313.9373","COUNTRY_CODE":"US","DECAY_DATE":null,"ECCENTRICITY":"0.00087710","FILE":"3874492","RCS_SIZE":"LARGE","RA_OF_ASC_NODE":"96.3405","MEAN_ELEMENT_THEORY":"SGP4","OBJECT_ID":"2020-001AN"},{"EPOCH":"2023-03-29T21:46:02.487072","TIME_SYSTEM":"UTC","BSTAR":"0.00250790000000","TLE_LINE2":"2 44951  53.0185  75.2693 0007672  75.7549 284.4303 15.33917754179790","GP_ID":"229134414","MEAN_MOTION_DOT":"0.00084084","NORAD_CAT_ID":"44951","CLASSIFICATION_TYPE":"U","TLE_LINE1":"1 44951U 20001AP  23088.90697323  .00084084  00000-0  25079-2 0  9995","PERIOD":"93.877","MEAN_MOTION":"15.33917754","EPHEMERIS_TYPE":"0","INCLINATION":"53.0185","PERIAPSIS":"458.890","SITE":"AFETR","APOAPSIS":"469.388","LAUNCH_DATE":"2020-01-07","OBJECT_TYPE":"PAYLOAD","ELEMENT_SET_NO":"999","MEAN_MOTION_DDOT":"0.0000000000000","OBJECT_NAME":"STARLINK-1126","REV_AT_EPOCH":"17979","ARG_OF_PERICENTER":"75.7549","REF_FRAME":"TEME","SEMIMAJOR_AXIS":"6842.274","MEAN_ANOMALY":"284.4303","CENTER_NAME":"EARTH","DECAY_DATE":null,"COUNTRY_CODE":"US","ECCENTRICITY":"0.00076720","RA_OF_ASC_NODE":"75.2693","OBJECT_ID":"2020-001AP","MEAN_ELEMENT_THEORY":"SGP4","FILE":"3874790","RCS_SIZE":"LARGE"},{"MEAN_MOTION_DDOT":"0.0000000000000","ELEMENT_SET_NO":"999","OBJECT_TYPE":"PAYLOAD","APOAPSIS":"548.028","LAUNCH_DATE":"2020-01-07","SEMIMAJOR_AXIS":"6925.211","REF_FRAME":"TEME","ARG_OF_PERICENTER":"84.0591","REV_AT_EPOCH":"17793","OBJECT_NAME":"STARLINK-1117","COUNTRY_CODE":"US","DECAY_DATE":null,"CENTER_NAME":"EARTH","MEAN_ANOMALY":"276.0555","RCS_SIZE":"LARGE","FILE":"3874790","MEAN_ELEMENT_THEORY":"SGP4","RA_OF_ASC_NODE":"117.4020","OBJECT_ID":"2020-001AQ","ECCENTRICITY":"0.00013750","NORAD_CAT_ID":"44952","TLE_LINE2":"2 44952  53.0520 117.4020 0001375  84.0591 276.0555 15.06445009177930","MEAN_MOTION_DOT":"0.00021598","GP_ID":"229135162","BSTAR":"0.00146260000000","TIME_SYSTEM":"UTC","EPOCH":"2023-03-29T14:14:06.190944","CLASSIFICATION_TYPE":"U","PERIOD":"95.589","TLE_LINE1":"1 44952U 20001AQ  23088.59312721  .00021598  00000-0  14626-2 0  9994","SITE":"AFETR","PERIAPSIS":"546.123","INCLINATION":"53.0520","EPHEMERIS_TYPE":"0","MEAN_MOTION":"15.06445009"},{"ELEMENT_SET_NO":"999","OBJECT_TYPE":"PAYLOAD","LAUNCH_DATE":"2020-01-07","APOAPSIS":"548.278","MEAN_MOTION_DDOT":"0.0000000000000","REV_AT_EPOCH":"17925","OBJECT_NAME":"STARLINK-1124","SEMIMAJOR_AXIS":"6925.288","REF_FRAME":"TEME","ARG_OF_PERICENTER":"75.9693","CENTER_NAME":"EARTH","MEAN_ANOMALY":"284.1476","COUNTRY_CODE":"US","DECAY_DATE":null,"ECCENTRICITY":"0.00016240","RCS_SIZE":"LARGE","FILE":"3874790","RA_OF_ASC_NODE":"116.4294","OBJECT_ID":"2020-001AR","MEAN_ELEMENT_THEORY":"SGP4","TIME_SYSTEM":"UTC","EPOCH":"2023-03-29T19:25:54.306048","NORAD_CAT_ID":"44953","BSTAR":"0.00069924000000","TLE_LINE2":"2 44953  53.0524 116.4294 0001624  75.9693 284.1476 15.06419696179258","GP_ID":"229135913","MEAN_MOTION_DOT":"0.00010154","CLASSIFICATION_TYPE":"U","TLE_LINE1":"1 44953U 20001AR  23088.80965632  .00010154  00000-0  69924-3 0  9992","PERIOD":"95.591","PERIAPSIS":"546.029","INCLINATION":"53.0524","EPHEMERIS_TYPE":"0","MEAN_MOTION":"15.06419696","SITE":"AFETR"},{"GP_ID":"229101887","TLE_LINE2":"2 44954  53.0529  98.7498 0001555  94.9591 265.1576 15.06453278178111","BSTAR":"0.00175270000000","MEAN_MOTION_DOT":"0.00025959","NORAD_CAT_ID":"44954","TIME_SYSTEM":"UTC","EPOCH":"2023-03-29T07:01:32.106144","CLASSIFICATION_TYPE":"U","PERIOD":"95.589","TLE_LINE1":"1 44954U 20001AS  23088.29273271  .00025959  00000-0  17527-2 0  9997","SITE":"AFETR","EPHEMERIS_TYPE":"0","MEAN_MOTION":"15.06453278","PERIAPSIS":"545.973","INCLINATION":"53.0529","MEAN_MOTION_DDOT":"0.0000000000000","LAUNCH_DATE":"2020-01-07","APOAPSIS":"548.127","ELEMENT_SET_NO":"999","OBJECT_TYPE":"PAYLOAD","ARG_OF_PERICENTER":"94.9591","REF_FRAME":"TEME","SEMIMAJOR_AXIS":"6925.185","REV_AT_EPOCH":"17811","OBJECT_NAME":"STARLINK-1066","DECAY_DATE":null,"COUNTRY_CODE":"US","MEAN_ANOMALY":"265.1576","CENTER_NAME":"EARTH","RA_OF_ASC_NODE":"98.7498","MEAN_ELEMENT_THEORY":"SGP4","OBJECT_ID":"2020-001AS","RCS_SIZE":"LARGE","FILE":"3874492","ECCENTRICITY":"0.00015550"},{"COUNTRY_CODE":"US","DECAY_DATE":null,"CENTER_NAME":"EARTH","MEAN_ANOMALY":"270.8429","FILE":"3874492","RCS_SIZE":"LARGE","OBJECT_ID":"2020-001AT","RA_OF_ASC_NODE":"98.7158","MEAN_ELEMENT_THEORY":"SGP4","ECCENTRICITY":"0.00013060","MEAN_MOTION_DDOT":"0.0000000000000","OBJECT_TYPE":"PAYLOAD","ELEMENT_SET_NO":"999","APOAPSIS":"548.104","LAUNCH_DATE":"2020-01-07","SEMIMAJOR_AXIS":"6925.334","REF_FRAME":"TEME","ARG_OF_PERICENTER":"89.2709","OBJECT_NAME":"STARLINK-1069","REV_AT_EPOCH":"17811","PERIOD":"95.592","TLE_LINE1":"1 44955U 20001AT  23088.30010268  .00005316  00000-0  37545-3 0  9993","SITE":"AFETR","INCLINATION":"53.0546","PERIAPSIS":"546.295","MEAN_MOTION":"15.06404711","EPHEMERIS_TYPE":"0","NORAD_CAT_ID":"44955","TLE_LINE2":"2 44955  53.0546  98.7158 0001306  89.2709 270.8429 15.06404711178114","MEAN_MOTION_DOT":"0.00005316","GP_ID":"229102137","BSTAR":"0.00037545000000","EPOCH":"2023-03-29T07:12:08.871552","TIME_SYSTEM":"UTC","CLASSIFICATION_TYPE":"U"},{"ELEMENT_SET_NO":"999","OBJECT_TYPE":"PAYLOAD","LAUNCH_DATE":"2020-01-07","APOAPSIS":"548.608","MEAN_MOTION_DDOT":"0.0000000000000","OBJECT_NAME":"STARLINK-1070","REV_AT_EPOCH":"17824","SEMIMAJOR_AXIS":"6925.296","ARG_OF_PERICENTER":"73.1489","REF_FRAME":"TEME","CENTER_NAME":"EARTH","MEAN_ANOMALY":"286.9729","COUNTRY_CODE":"US","DECAY_DATE":null,"ECCENTRICITY":"0.00020900","RCS_SIZE":"LARGE","FILE":"3874790","RA_OF_ASC_NODE":"96.6486","MEAN_ELEMENT_THEORY":"SGP4","OBJECT_ID":"2020-001AU","TIME_SYSTEM":"UTC","EPOCH":"2023-03-29T18:14:15.275328","NORAD_CAT_ID":"44956","GP_ID":"229134664","TLE_LINE2":"2 44956  53.0545  96.6486 0002090  73.1489 286.9729 15.06417299178243","BSTAR":"0.00047181000000","MEAN_MOTION_DOT":"0.00006756","CLASSIFICATION_TYPE":"U","TLE_LINE1":"1 44956U 20001AU  23088.75989902  .00006756  00000-0  47181-3 0  9999","PERIOD":"95.591","PERIAPSIS":"545.713","INCLINATION":"53.0545","EPHEMERIS_TYPE":"0","MEAN_MOTION":"15.06417299","SITE":"AFETR"},{"MEAN_MOTION_DDOT":"0.0000000000000","ELEMENT_SET_NO":"999","OBJECT_TYPE":"PAYLOAD","APOAPSIS":"548.208","LAUNCH_DATE":"2020-01-07","SEMIMAJOR_AXIS":"6925.359","REF_FRAME":"TEME","ARG_OF_PERICENTER":"103.9227","REV_AT_EPOCH":"17826","OBJECT_NAME":"STARLINK-1074","COUNTRY_CODE":"US","DECAY_DATE":null,"CENTER_NAME":"EARTH","MEAN_ANOMALY":"256.1920","RCS_SIZE":"LARGE","FILE":"3874711","RA_OF_ASC_NODE":"95.9302","MEAN_ELEMENT_THEORY":"SGP4","OBJECT_ID":"2020-001AV","ECCENTRICITY":"0.00014210","NORAD_CAT_ID":"44957","TLE_LINE2":"2 44957  53.0552  95.9302 0001421 103.9227 256.1920 15.06396474178265","GP_ID":"229114066","BSTAR":"-0.00043111000000","MEAN_MOTION_DOT":"-0.00006696","TIME_SYSTEM":"UTC","EPOCH":"2023-03-29T22:02:29.046336","CLASSIFICATION_TYPE":"U","PERIOD":"95.592","TLE_LINE1":"1 44957U 20001AV  23088.91839174 -.00006696  00000-0 -43111-3 0  9997","SITE":"AFETR","PERIAPSIS":"546.240","INCLINATION":"53.0552","EPHEMERIS_TYPE":"0","MEAN_MOTION":"15.06396474"}];
